CORVUS BC4              
1 43767U 18099K   26068.65923737  .00005714  00000+0  33980-3 0  9990
2 43767  97.4206 114.5457 0008046 356.5821   3.5354 15.11615710397368
STARLINK-4166           
1 53291U 22086BB  26068.52882057 -.00000249  00000+0  24432-5 0  9992
2 53291  53.2178 179.6310 0001235  84.9193 275.1940 15.08836395201234
